stk.v.4.3 

BEGIN Ephemeris 
 
NumberOfEphemerisPoints		146 
ScenarioEpoch	    3 Sep 2020 21:59:47.944892049 
InterpolationMethod		Lagrange 
InterpolationOrder		5 
CentralBody				Earth 
CoordinateSystem			TEME 
CoordinateSystemEpoch	  3 Sep 2020 21:59:47.944892049 
DistanceUnit			Kilometers 
 
EphemerisTimePosVel 
 
       0.00000000   -7090.04215347    -989.95799794       0.04473842  0.074402690 -0.462084424  7.448829502
 END Ephemeris 
